{
    "links": {
        "self": "http://www.neowsapp.com/rest/v1/neo/3170235?api_key=iIulBulltgU6a56xZRHN4H3l9WmuAYTsLGpBGhQ2"
    },
    "id": "3170235",
    "neo_reference_id": "3170235",
    "name": "(2003 XZ12)",
    "designation": "2003 XZ12",
    "nasa_jpl_url": "http://ssd.jpl.nasa.gov/sbdb.cgi?sstr=3170235",
    "absolute_magnitude_h": 24.4,
    "estimated_diameter": {
        "kilometers": {
            "estimated_diameter_min": 0.0350392641,
            "estimated_diameter_max": 0.0783501764
        },
        "meters": {
            "estimated_diameter_min": 35.0392641108,
            "estimated_diameter_max": 78.3501764334
        },
        "miles": {
            "estimated_diameter_min": 0.0217723826,
            "estimated_diameter_max": 0.0486845275
        },
        "feet": {
            "estimated_diameter_min": 114.9582192654,
            "estimated_diameter_max": 257.0543928497
        }
    },
    "is_potentially_hazardous_asteroid": false,
    "close_approach_data": [
        {
            "close_approach_date": "2003-12-18",
            "close_approach_date_full": "2003-Dec-18 14:06",
            "epoch_date_close_approach": 1071756360000,
            "relative_velocity": {
                "kilometers_per_second": "8.5270556863",
                "kilometers_per_hour": "30697.4004706527",
                "miles_per_hour": "19074.1708646675"
            },
            "miss_distance": {
                "astronomical": "0.0339865436",
                "lunar": "13.2207654604",
                "kilometers": "5084314.531222132",
                "miles": "3159246.5534921416"
            },
            "orbiting_body": "Earth"
        }
    ],
    "orbital_data": {
        "orbit_id": "10",
        "orbit_determination_date": "2017-04-06 09:13:26",
        "first_observation_date": "2003-12-15",
        "last_observation_date": "2003-12-25",
        "data_arc_in_days": 10,
        "observations_used": 30,
        "orbit_uncertainty": "8",
        "minimum_orbit_intersection": ".016107",
        "jupiter_tisserand_invariant": "4.592",
        "epoch_osculation": "2452990.5",
        "eccentricity": ".3129043418482105",
        "semi_major_axis": "1.438757849399817",
        "inclination": "12.41557196159989",
        "ascending_node_longitude": "268.5139623013837",
        "orbital_period": "630.3474291126113",
        "perihelion_distance": ".9885642714544208",
        "perihelion_argument": "198.4266723480754",
        "aphelion_distance": "1.888951427345214",
        "perihelion_time": "2453008.868977752652",
        "mean_anomaly": "349.5092266811271",
        "mean_motion": ".5711136166713645",
        "equinox": "J2000",
        "orbit_class": {
            "orbit_class_type": "APO",
            "orbit_class_description": "Near-Earth asteroid orbits which cross the Earth’s orbit similar to that of 1862 Apollo",
            "orbit_class_range": "a (semi-major axis) > 1.0 AU; q (perihelion) < 1.017 AU"
        }
    },
    "is_sentry_object": false
}